CCSDS_OMM_VERS = 2.0
CREATION_DATE  = 
ORIGINATOR     = 

OBJECT_NAME    = CZ-2C R/B
OBJECT_ID      = 2022-132E
CENTER_NAME    = EARTH
REF_FRAME      = TEME
TIME_SYSTEM    = UTC
MEAN_ELEMENT_THEORY = SGP/SGP4

EPOCH          = 2026-01-01T23:59:55.096800
MEAN_MOTION    = 15.56219329
ECCENTRICITY   = .0019252
INCLINATION    = 97.2936
RA_OF_ASC_NODE = 3.6053
ARG_OF_PERICENTER = 345.9837
MEAN_ANOMALY   = 14.0881

EPHEMERIS_TYPE = 0
CLASSIFICATION_TYPE = U
NORAD_CAT_ID   = 54039
ELEMENT_SET_NO = 999
REV_AT_EPOCH   = 17998
BSTAR          = .68741E-3
MEAN_MOTION_DOT = .48704E-3
MEAN_MOTION_DDOT = 0

CCSDS_OMM_VERS = 2.0
CREATION_DATE  = 
ORIGINATOR     = 

OBJECT_NAME    = GSLV R/B
OBJECT_ID      = 2022-138AN
CENTER_NAME    = EARTH
REF_FRAME      = TEME
TIME_SYSTEM    = UTC
MEAN_ELEMENT_THEORY = SGP/SGP4

EPOCH          = 2026-01-01T23:41:32.756352
MEAN_MOTION    = 14.96255941
ECCENTRICITY   = .0023332
INCLINATION    = 87.3818
RA_OF_ASC_NODE = 188.6916
ARG_OF_PERICENTER = 38.7073
MEAN_ANOMALY   = 321.5825

EPHEMERIS_TYPE = 0
CLASSIFICATION_TYPE = U
NORAD_CAT_ID   = 54149
ELEMENT_SET_NO = 999
REV_AT_EPOCH   = 17395
BSTAR          = .49165E-3
MEAN_MOTION_DOT = .5606E-4
MEAN_MOTION_DDOT = 0

CCSDS_OMM_VERS = 2.0
CREATION_DATE  = 
ORIGINATOR     = 

OBJECT_NAME    = XRISM
OBJECT_ID      = 2023-137A
CENTER_NAME    = EARTH
REF_FRAME      = TEME
TIME_SYSTEM    = UTC
MEAN_ELEMENT_THEORY = SGP/SGP4

EPOCH          = 2026-01-02T01:20:13.565184
MEAN_MOTION    = 15.10600013
ECCENTRICITY   = .0007606
INCLINATION    = 31.0035
RA_OF_ASC_NODE = 354.3569
ARG_OF_PERICENTER = 91.3090
MEAN_ANOMALY   = 268.8420

EPHEMERIS_TYPE = 0
CLASSIFICATION_TYPE = U
NORAD_CAT_ID   = 57800
ELEMENT_SET_NO = 999
REV_AT_EPOCH   = 12770
BSTAR          = .61268E-3
MEAN_MOTION_DOT = .10479E-3
MEAN_MOTION_DDOT = 0

CCSDS_OMM_VERS = 2.0
CREATION_DATE  = 
ORIGINATOR     = 

OBJECT_NAME    = ACS3
OBJECT_ID      = 2024-077B
CENTER_NAME    = EARTH
REF_FRAME      = TEME
TIME_SYSTEM    = UTC
MEAN_ELEMENT_THEORY = SGP/SGP4

EPOCH          = 2026-01-01T21:29:31.109280
MEAN_MOTION    = 13.86596828
ECCENTRICITY   = .0070517
INCLINATION    = 97.2533
RA_OF_ASC_NODE = 317.9971
ARG_OF_PERICENTER = 287.7478
MEAN_ANOMALY   = 71.5996

EPHEMERIS_TYPE = 0
CLASSIFICATION_TYPE = U
NORAD_CAT_ID   = 59588
ELEMENT_SET_NO = 999
REV_AT_EPOCH   = 8493
BSTAR          = .33811E-1
MEAN_MOTION_DOT = .40241E-3
MEAN_MOTION_DDOT = 0

CCSDS_OMM_VERS = 2.0
CREATION_DATE  = 
ORIGINATOR     = 

OBJECT_NAME    = SZ-21 MODULE
OBJECT_ID      = 2025-246C
CENTER_NAME    = EARTH
REF_FRAME      = TEME
TIME_SYSTEM    = UTC
MEAN_ELEMENT_THEORY = SGP/SGP4

EPOCH          = 2026-01-02T01:11:10.643136
MEAN_MOTION    = 15.63714409
ECCENTRICITY   = .0002575
INCLINATION    = 41.4758
RA_OF_ASC_NODE = 252.0509
ARG_OF_PERICENTER = 18.3037
MEAN_ANOMALY   = 341.7895

EPHEMERIS_TYPE = 0
CLASSIFICATION_TYPE = U
NORAD_CAT_ID   = 66515
ELEMENT_SET_NO = 999
REV_AT_EPOCH   = 762
BSTAR          = .41968E-3
MEAN_MOTION_DOT = .40185E-3
MEAN_MOTION_DDOT = 0

