CZ-2C R/B               
1 54039U 22132E   26001.99994325  .00048704  00000+0  68741-3 0  9991
2 54039  97.2936   3.6053 0019252 345.9837  14.0881 15.56219329179983
GSLV R/B                
1 54149U 22138AN  26001.98718468  .00005606  00000+0  49165-3 0  9993
2 54149  87.3818 188.6916 0023332  38.7073 321.5825 14.96255941173957
XRISM                   
1 57800U 23137A   26002.05571256  .00010479  00000+0  61268-3 0  9993
2 57800  31.0035 354.3569 0007606  91.3090 268.8420 15.10600013127704
ACS3                    
1 59588U 24077B   26001.89549895  .00040241  00000+0  33811-1 0  9998
2 59588  97.2533 317.9971 0070517 287.7478  71.5996 13.86596828 84933
SZ-21 MODULE            
1 66515U 25246C   26002.04942874  .00040185  00000+0  41968-3 0  9998
2 66515  41.4758 252.0509 0002575  18.3037 341.7895 15.63714409  7620
